{"type":"FeatureCollection","meta":{"latest":"2026-10-11 08:30:00","generated":"2026-10-11T01:38:02.272Z","api_generated":"2026-10-11 08:38:01","stale":false,"scrape_failing":false,"total":247,"flood":0,"slight":2,"dry":227,"off":18,"drawn_flood":0,"drawn_slight":2,"without_road_geometry":0,"reports":0,"reports_ok":true},"features":[{"type":"Feature","properties":{"src":"sensor","code":"FL.PWT.04","name":"ถ.อ่อนนุช (ซ.59)","road":"ถนนอ่อนนุช","level":"a","depth_cm":10,"at_least":false,"district":"ประเวศ","kind":1,"measured_at":"2026-10-11 08:30:00","since":"2026-09-25 02:40:00","geom":"osm"},"geometry":{"type":"LineString","coordinates":[[100.67161,13.71927],[100.67256,13.71942],[100.67404,13.71964]]}},{"type":"Feature","properties":{"src":"sensor","code":"FL.PWT.04","name":"ถ.อ่อนนุช (ซ.59)","road":"ถนนอ่อนนุช","level":"a","depth_cm":10,"at_least":false,"district":"ประเวศ","kind":1,"measured_at":"2026-10-11 08:30:00","since":"2026-09-25 02:40:00","geom":"osm"},"geometry":{"type":"LineString","coordinates":[[100.67406,13.71952],[100.6734,13.71942],[100.67304,13.71937],[100.67239,13.71928],[100.67214,13.71924],[100.67183,13.71919],[100.67162,13.71916]]}},{"type":"Feature","properties":{"src":"sensor","code":"FL.SLG.01","name":"ถ.พัฒนาการ (แยกศรีนครินทร์)","road":"ถนนพัฒนาการ","level":"a","depth_cm":7.3,"at_least":false,"district":"สวนหลวง","kind":1,"measured_at":"2026-10-11 08:25:00","since":"2026-09-26 15:50:00","geom":"osm"},"geometry":{"type":"LineString","coordinates":[[100.63796,13.73604],[100.63817,13.73599],[100.63827,13.73598],[100.63838,13.73596],[100.63921,13.73585]]}},{"type":"Feature","properties":{"src":"sensor","code":"FL.SLG.01","name":"ถ.พัฒนาการ (แยกศรีนครินทร์)","road":"ถนนพัฒนาการ","level":"a","depth_cm":7.3,"at_least":false,"district":"สวนหลวง","kind":1,"measured_at":"2026-10-11 08:25:00","since":"2026-09-26 15:50:00","geom":"osm"},"geometry":{"type":"LineString","coordinates":[[100.63796,13.73604],[100.63815,13.73603],[100.63825,13.73602],[100.63835,13.73601],[100.63975,13.73584],[100.63985,13.73582]]}},{"type":"Feature","properties":{"src":"sensor","code":"FL.SLG.01","name":"ถ.พัฒนาการ (แยกศรีนครินทร์)","road":"ถนนพัฒนาการ","level":"a","depth_cm":7.3,"at_least":false,"district":"สวนหลวง","kind":1,"measured_at":"2026-10-11 08:25:00","since":"2026-09-26 15:50:00","geom":"osm"},"geometry":{"type":"LineString","coordinates":[[100.63612,13.73626],[100.63613,13.73625],[100.63657,13.7362],[100.63767,13.73607],[100.63773,13.73607],[100.63796,13.73604]]}}]}
